O3B MPOWER F1           
1 54755U 22174A   23252.46358269 -.00000032  00000+0  00000+0 0  9993
2 54755   0.0452  15.9365 0004724 166.6812 117.6747  5.00118541 14749
